<?xml version="1.0" encoding="UTF-8"?>
<gpx version="1.1" creator="Etch course library" xmlns="http://www.topografix.com/GPX/1/1">
  <metadata>
    <name>Mesa Marathon</name>
    <desc>Official 2026 course, exported from mesamarathon.com. Point-to-point, net downhill.</desc>
  </metadata>
  <trk>
    <name>Mesa Marathon</name>
    <trkseg>
      <trkpt lat="33.483279" lon="-111.622861"></trkpt>
      <trkpt lat="33.480101" lon="-111.624724"></trkpt>
      <trkpt lat="33.478593" lon="-111.625541"></trkpt>
      <trkpt lat="33.475764" lon="-111.626721"></trkpt>
      <trkpt lat="33.469026" lon="-111.62956"></trkpt>
      <trkpt lat="33.466186" lon="-111.630501"></trkpt>
      <trkpt lat="33.46236" lon="-111.631767"></trkpt>
      <trkpt lat="33.46215" lon="-111.631876"></trkpt>
      <trkpt lat="33.462118" lon="-111.632112"></trkpt>
      <trkpt lat="33.462516" lon="-111.634457"></trkpt>
      <trkpt lat="33.46289" lon="-111.635577"></trkpt>
      <trkpt lat="33.463466" lon="-111.63667"></trkpt>
      <trkpt lat="33.465036" lon="-111.638507"></trkpt>
      <trkpt lat="33.46548" lon="-111.639121"></trkpt>
      <trkpt lat="33.465871" lon="-111.640048"></trkpt>
      <trkpt lat="33.466041" lon="-111.640907"></trkpt>
      <trkpt lat="33.46612" lon="-111.642915"></trkpt>
      <trkpt lat="33.4662" lon="-111.647744"></trkpt>
      <trkpt lat="33.4662" lon="-111.64774"></trkpt>
      <trkpt lat="33.46622" lon="-111.65413"></trkpt>
      <trkpt lat="33.466217" lon="-111.654135"></trkpt>
      <trkpt lat="33.46622" lon="-111.65413"></trkpt>
      <trkpt lat="33.46622" lon="-111.65583"></trkpt>
      <trkpt lat="33.46626" lon="-111.66123"></trkpt>
      <trkpt lat="33.46626" lon="-111.661228"></trkpt>
      <trkpt lat="33.466312" lon="-111.667266"></trkpt>
      <trkpt lat="33.466392" lon="-111.671712"></trkpt>
      <trkpt lat="33.466398" lon="-111.672232"></trkpt>
      <trkpt lat="33.466556" lon="-111.672358"></trkpt>
      <trkpt lat="33.466867" lon="-111.672356"></trkpt>
      <trkpt lat="33.468032" lon="-111.672354"></trkpt>
      <trkpt lat="33.468546" lon="-111.672321"></trkpt>
      <trkpt lat="33.469233" lon="-111.672078"></trkpt>
      <trkpt lat="33.469514" lon="-111.671912"></trkpt>
      <trkpt lat="33.469998" lon="-111.67149"></trkpt>
      <trkpt lat="33.470385" lon="-111.670993"></trkpt>
      <trkpt lat="33.47116" lon="-111.669868"></trkpt>
      <trkpt lat="33.471433" lon="-111.669541"></trkpt>
      <trkpt lat="33.472304" lon="-111.668889"></trkpt>
      <trkpt lat="33.473332" lon="-111.6682"></trkpt>
      <trkpt lat="33.473408" lon="-111.668134"></trkpt>
      <trkpt lat="33.474006" lon="-111.667429"></trkpt>
      <trkpt lat="33.477586" lon="-111.661413"></trkpt>
      <trkpt lat="33.47824" lon="-111.660737"></trkpt>
      <trkpt lat="33.478696" lon="-111.660442"></trkpt>
      <trkpt lat="33.479742" lon="-111.659884"></trkpt>
      <trkpt lat="33.481144" lon="-111.659187"></trkpt>
      <trkpt lat="33.482091" lon="-111.658672"></trkpt>
      <trkpt lat="33.483035" lon="-111.65854"></trkpt>
      <trkpt lat="33.483823" lon="-111.658676"></trkpt>
      <trkpt lat="33.484533" lon="-111.659013"></trkpt>
      <trkpt lat="33.485324" lon="-111.65962"></trkpt>
      <trkpt lat="33.485791" lon="-111.660194"></trkpt>
      <trkpt lat="33.487605" lon="-111.663226"></trkpt>
      <trkpt lat="33.48849" lon="-111.663766"></trkpt>
      <trkpt lat="33.489808" lon="-111.66451"></trkpt>
      <trkpt lat="33.490418" lon="-111.665227"></trkpt>
      <trkpt lat="33.4908" lon="-111.665854"></trkpt>
      <trkpt lat="33.491085" lon="-111.666718"></trkpt>
      <trkpt lat="33.491267" lon="-111.668717"></trkpt>
      <trkpt lat="33.491489" lon="-111.671751"></trkpt>
      <trkpt lat="33.491703" lon="-111.673082"></trkpt>
      <trkpt lat="33.491828" lon="-111.674186"></trkpt>
      <trkpt lat="33.491681" lon="-111.675612"></trkpt>
      <trkpt lat="33.491467" lon="-111.67668"></trkpt>
      <trkpt lat="33.490852" lon="-111.677861"></trkpt>
      <trkpt lat="33.4903" lon="-111.678392"></trkpt>
      <trkpt lat="33.489654" lon="-111.678811"></trkpt>
      <trkpt lat="33.489062" lon="-111.679"></trkpt>
      <trkpt lat="33.487398" lon="-111.679082"></trkpt>
      <trkpt lat="33.486981" lon="-111.679138"></trkpt>
      <trkpt lat="33.484666" lon="-111.679806"></trkpt>
      <trkpt lat="33.483902" lon="-111.680046"></trkpt>
      <trkpt lat="33.481753" lon="-111.680592"></trkpt>
      <trkpt lat="33.481211" lon="-111.681085"></trkpt>
      <trkpt lat="33.480952" lon="-111.681818"></trkpt>
      <trkpt lat="33.48094" lon="-111.683687"></trkpt>
      <trkpt lat="33.481014" lon="-111.683792"></trkpt>
      <trkpt lat="33.486076" lon="-111.683921"></trkpt>
      <trkpt lat="33.489834" lon="-111.684037"></trkpt>
      <trkpt lat="33.48992" lon="-111.684152"></trkpt>
      <trkpt lat="33.489919" lon="-111.686628"></trkpt>
      <trkpt lat="33.489786" lon="-111.687227"></trkpt>
      <trkpt lat="33.489448" lon="-111.687871"></trkpt>
      <trkpt lat="33.488649" lon="-111.688666"></trkpt>
      <trkpt lat="33.487054" lon="-111.690179"></trkpt>
      <trkpt lat="33.48576" lon="-111.691407"></trkpt>
      <trkpt lat="33.484397" lon="-111.692056"></trkpt>
      <trkpt lat="33.484087" lon="-111.69244"></trkpt>
      <trkpt lat="33.483403" lon="-111.693673"></trkpt>
      <trkpt lat="33.482685" lon="-111.694794"></trkpt>
      <trkpt lat="33.482433" lon="-111.695344"></trkpt>
      <trkpt lat="33.482188" lon="-111.696081"></trkpt>
      <trkpt lat="33.48209" lon="-111.696627"></trkpt>
      <trkpt lat="33.482081" lon="-111.697142"></trkpt>
      <trkpt lat="33.482413" lon="-111.699082"></trkpt>
      <trkpt lat="33.482261" lon="-111.69992"></trkpt>
      <trkpt lat="33.482013" lon="-111.700902"></trkpt>
      <trkpt lat="33.481896" lon="-111.701335"></trkpt>
      <trkpt lat="33.481786" lon="-111.701383"></trkpt>
      <trkpt lat="33.481533" lon="-111.701326"></trkpt>
      <trkpt lat="33.481039" lon="-111.701306"></trkpt>
      <trkpt lat="33.480639" lon="-111.701324"></trkpt>
      <trkpt lat="33.476821" lon="-111.701352"></trkpt>
      <trkpt lat="33.475377" lon="-111.70137"></trkpt>
      <trkpt lat="33.471983" lon="-111.701373"></trkpt>
      <trkpt lat="33.471698" lon="-111.701377"></trkpt>
      <trkpt lat="33.468883" lon="-111.701389"></trkpt>
      <trkpt lat="33.466987" lon="-111.701474"></trkpt>
      <trkpt lat="33.466563" lon="-111.701503"></trkpt>
      <trkpt lat="33.46647" lon="-111.701596"></trkpt>
      <trkpt lat="33.466398" lon="-111.710302"></trkpt>
      <trkpt lat="33.466436" lon="-111.715419"></trkpt>
      <trkpt lat="33.466438" lon="-111.723354"></trkpt>
      <trkpt lat="33.466442" lon="-111.733168"></trkpt>
      <trkpt lat="33.466429" lon="-111.739702"></trkpt>
      <trkpt lat="33.466437" lon="-111.744108"></trkpt>
      <trkpt lat="33.46644" lon="-111.745318"></trkpt>
      <trkpt lat="33.466434" lon="-111.753045"></trkpt>
      <trkpt lat="33.466425" lon="-111.759135"></trkpt>
      <trkpt lat="33.466412" lon="-111.769168"></trkpt>
      <trkpt lat="33.46642" lon="-111.77041"></trkpt>
      <trkpt lat="33.46625" lon="-111.77058"></trkpt>
      <trkpt lat="33.461795" lon="-111.770633"></trkpt>
      <trkpt lat="33.45745" lon="-111.770722"></trkpt>
      <trkpt lat="33.45187" lon="-111.770834"></trkpt>
      <trkpt lat="33.446584" lon="-111.770892"></trkpt>
      <trkpt lat="33.443879" lon="-111.770855"></trkpt>
      <trkpt lat="33.438502" lon="-111.770935"></trkpt>
      <trkpt lat="33.437432" lon="-111.770992"></trkpt>
      <trkpt lat="33.43729" lon="-111.77114"></trkpt>
      <trkpt lat="33.437255" lon="-111.774133"></trkpt>
      <trkpt lat="33.437256" lon="-111.775577"></trkpt>
      <trkpt lat="33.437226" lon="-111.779878"></trkpt>
      <trkpt lat="33.437089" lon="-111.800804"></trkpt>
      <trkpt lat="33.437071" lon="-111.805451"></trkpt>
      <trkpt lat="33.43701" lon="-111.806987"></trkpt>
      <trkpt lat="33.436923" lon="-111.807984"></trkpt>
      <trkpt lat="33.436724" lon="-111.808831"></trkpt>
      <trkpt lat="33.435994" lon="-111.810696"></trkpt>
      <trkpt lat="33.435719" lon="-111.811638"></trkpt>
      <trkpt lat="33.435574" lon="-111.812504"></trkpt>
      <trkpt lat="33.435549" lon="-111.819405"></trkpt>
      <trkpt lat="33.435541" lon="-111.822447"></trkpt>
      <trkpt lat="33.435389" lon="-111.822632"></trkpt>
      <trkpt lat="33.434336" lon="-111.822634"></trkpt>
      <trkpt lat="33.431149" lon="-111.822722"></trkpt>
      <trkpt lat="33.430168" lon="-111.822744"></trkpt>
      <trkpt lat="33.425977" lon="-111.822834"></trkpt>
      <trkpt lat="33.421968" lon="-111.822916"></trkpt>
      <trkpt lat="33.421375" lon="-111.822923"></trkpt>
      <trkpt lat="33.421035" lon="-111.822931"></trkpt>
      <trkpt lat="33.418172" lon="-111.823032"></trkpt>
      <trkpt lat="33.417388" lon="-111.823063"></trkpt>
      <trkpt lat="33.417303" lon="-111.823166"></trkpt>
      <trkpt lat="33.417299" lon="-111.827564"></trkpt>
      <trkpt lat="33.417321" lon="-111.832944"></trkpt>
      <trkpt lat="33.417328" lon="-111.834504"></trkpt>
      <trkpt lat="33.417327" lon="-111.836455"></trkpt>
      <trkpt lat="33.417431" lon="-111.836568"></trkpt>
      <trkpt lat="33.417728" lon="-111.836575"></trkpt>
      <trkpt lat="33.41803" lon="-111.836568"></trkpt>
      <trkpt lat="33.420768" lon="-111.836533"></trkpt>
      <trkpt lat="33.421972" lon="-111.836529"></trkpt>
      <trkpt lat="33.422202" lon="-111.836535"></trkpt>
      <trkpt lat="33.422307" lon="-111.836435"></trkpt>
      <trkpt lat="33.422351" lon="-111.83192"></trkpt>
      <trkpt lat="33.422355" lon="-111.831659"></trkpt>
      <trkpt lat="33.422498" lon="-111.831518"></trkpt>
      <trkpt lat="33.430182" lon="-111.831383"></trkpt>
      <trkpt lat="33.434682" lon="-111.83131"></trkpt>
      <trkpt lat="33.434916" lon="-111.831516"></trkpt>
      <trkpt lat="33.434933" lon="-111.833393"></trkpt>
      <trkpt lat="33.434937" lon="-111.834032"></trkpt>
      <trkpt lat="33.435128" lon="-111.835718"></trkpt>
      <trkpt lat="33.435141" lon="-111.838668"></trkpt>
      <trkpt lat="33.435158" lon="-111.840226"></trkpt>
      <trkpt lat="33.43516" lon="-111.84023"></trkpt>
      <trkpt lat="33.43512" lon="-111.8408"></trkpt>
      <trkpt lat="33.43511" lon="-111.84169"></trkpt>
      <trkpt lat="33.43509" lon="-111.84311"></trkpt>
      <trkpt lat="33.43507" lon="-111.84335"></trkpt>
      <trkpt lat="33.435069" lon="-111.843347"></trkpt>
      <trkpt lat="33.434885" lon="-111.843867"></trkpt>
      <trkpt lat="33.434685" lon="-111.844119"></trkpt>
      <trkpt lat="33.434519" lon="-111.844282"></trkpt>
      <trkpt lat="33.433876" lon="-111.844506"></trkpt>
      <trkpt lat="33.433267" lon="-111.844606"></trkpt>
      <trkpt lat="33.432682" lon="-111.844651"></trkpt>
      <trkpt lat="33.429912" lon="-111.844773"></trkpt>
      <trkpt lat="33.429729" lon="-111.844769"></trkpt>
      <trkpt lat="33.42962" lon="-111.844883"></trkpt>
      <trkpt lat="33.429573" lon="-111.847684"></trkpt>
      <trkpt lat="33.429504" lon="-111.852084"></trkpt>
      <trkpt lat="33.429455" lon="-111.856443"></trkpt>
      <trkpt lat="33.429415" lon="-111.861221"></trkpt>
      <trkpt lat="33.429483" lon="-111.874246"></trkpt>
      <trkpt lat="33.42947" lon="-111.874944"></trkpt>
      <trkpt lat="33.429466" lon="-111.877446"></trkpt>
      <trkpt lat="33.429516" lon="-111.877562"></trkpt>
      <trkpt lat="33.429635" lon="-111.877611"></trkpt>
      <trkpt lat="33.43068" lon="-111.87761"></trkpt>
    </trkseg>
  </trk>
</gpx>
